[{"OBJECT_NAME":"STARLINK-30478","OBJECT_ID":"2023-146W","EPOCH":"2026-03-09T22:00:01.999584","MEAN_MOTION":15.05945063,"ECCENTRICITY":0.00013264,"INCLINATION":42.9997,"RA_OF_ASC_NODE":311.5054,"ARG_OF_PERICENTER":285.7723,"MEAN_ANOMALY":206.7337,"EPHEMERIS_TYPE":0,"CLASSIFICATION_TYPE":"U","NORAD_CAT_ID":57911,"ELEMENT_SET_NO":999,"REV_AT_EPOCH":552,"BSTAR":0.11273641,"MEAN_MOTION_DOT":0.01842676,"MEAN_MOTION_DDOT":0},{"OBJECT_NAME":"SITRO-AIS-59","OBJECT_ID":"2025-313K","EPOCH":"2026-03-09T21:18:35.055936","MEAN_MOTION":15.21259923,"ECCENTRICITY":0.00156259,"INCLINATION":97.4001,"RA_OF_ASC_NODE":145.102,"ARG_OF_PERICENTER":358.3568,"MEAN_ANOMALY":1.7614,"EPHEMERIS_TYPE":0,"CLASSIFICATION_TYPE":"U","NORAD_CAT_ID":67257,"ELEMENT_SET_NO":999,"REV_AT_EPOCH":1084,"BSTAR":0.00052056429,"MEAN_MOTION_DOT":0.00011608,"MEAN_MOTION_DDOT":0}]
